OPTICUBE 04             
1 41851U 16067D   23221.36930835  .00003648  00000+0  29708-3 0  9995
2 41851  98.0580   9.4874 0015226  23.2482 336.9426 15.00104760368307
AEROCUBE 8D             
1 41852U 16067E   23221.67111823  .00005273  00000+0  40097-3 0  9998
2 41852  98.0752  11.0558 0007969  79.6325 280.5797 15.02574494368394
AEROCUBE 8C             
1 41853U 16067F   23220.66844290  .00005674  00000+0  43222-3 0  9996
2 41853  98.0556   9.4130 0009819  27.3055 332.8683 15.02455768368230
PROMETHEUS 2-1          
1 41854U 16067G   23220.38395216  .00012245  00000+0  82814-3 0  9997
2 41854  98.0736  12.5779 0016922  43.2545 317.0006 15.06584210368344
PROMETHEUS 2-3          
1 41855U 16067H   23220.70980688  .00011808  00000+0  79964-3 0  9993
2 41855  98.0660  12.7239 0014558  51.6889 308.5643 15.06574009368393
INS-1B                  
1 41954U 17008G   23221.45230659  .00131812  00000+0  12022-2 0  9997
2 41954  97.1920 282.9724 0005291 168.9637 191.1742 15.67454757361190
DIDO-2                  
1 42000U 17008BE  23220.96812791  .00026658  00000+0  62608-3 0  9995
2 42000  97.1970 276.2673 0005734 186.1606 173.9572 15.41982602360068
PEASSS                  
1 42015U 17008BV  23221.43633816  .00069074  00000+0  90742-3 0  9992
2 42015  97.2011 285.2905 0004740 168.1693 191.9676 15.58275566361137
UCLSAT                  
1 42765U 17036A   23220.84756585  .00080017  00000+0  10521-2 0  9994
2 42765  97.1368 259.6636 0004334 215.5105 144.5863 15.58213232341472
AALTO-1                 
1 42775U 17036L   23221.34294468  .00020313  00000+0  55208-3 0  9993
2 42775  97.1495 249.9128 0007151 268.6392  91.4034 15.37562339340683
URSA MAIOR              
1 42776U 17036M   23221.33290222  .00023788  00000+0  59924-3 0  9995
2 42776  97.1503 251.4125 0006770 261.0675  98.9806 15.39871403340761
DIAMOND RED             
1 42783U 17036U   23221.06664724  .00035647  00000+0  79344-3 0  9990
2 42783  97.1477 254.7077 0005107 261.4569  98.6101 15.43536119340942
PEGASUS                 
1 42784U 17036V   23220.84258714  .00053899  00000+0  88897-3 0  9996
2 42784  97.1428 257.7736 0004589 230.9720 129.1125 15.52111296341130
DIAMOND GREEN           
1 42785U 17036W   23221.09155045  .00037418  00000+0  79460-3 0  9993
2 42785  97.1465 255.0230 0004687 257.4944 102.5781 15.44922475340955
DIAMOND BLUE            
1 42786U 17036X   23221.06887358  .00035963  00000+0  77957-3 0  9992
2 42786  97.1469 254.9056 0005004 258.2122 101.8565 15.44320802340942
SUCHAI                  
1 42788U 17036Z   23221.07127542  .00153908  00000+0  13454-2 0  9998
2 42788  97.1369 262.7556 0005511 208.8054 151.2904 15.68433420341554
SKCUBE                  
1 42789U 17036AA  23221.57948205  .00078052  00000+0  99172-3 0  9999
2 42789  97.1382 261.1131 0005188 216.8909 143.1992 15.59128205341414
ROBUSTA 1B              
1 42792U 17036AD  23221.58109151  .00110707  00000+0  11174-2 0  9992
2 42792  97.1358 262.7094 0004953 203.5230 156.5804 15.64985552341530
CICERO 6                
1 42793U 17036AE  23221.03619800  .00029186  00000+0  69865-3 0  9991
2 42793  97.1460 254.6556 0004445 263.0049  97.0693 15.41395685341030
CORVUS BC2              
1 42846U 17042X   23221.00886211  .00002909  00000+0  27061-3 0  9992
2 42846  97.3845  59.1020 0009786  42.2708 317.9266 14.95007247330618
CORVUS BC1              
1 42847U 17042Y   23221.53221997  .00002126  00000+0  19865-3 0  9999
2 42847  97.3845  59.9560 0009548  39.9659 320.2264 14.95105873330709
MIRATA                  
1 43015U 17073C   23220.94652020  .00011911  00000+0  73449-3 0  9990
2 43015  97.6258 107.2074 0205819 238.4053 119.6935 14.94098952309369
MAKERSAT 0              
1 43016U 17073D   23221.60918984  .00006590  00000+0  44068-3 0  9991
2 43016  97.6245 105.5953 0221223 246.8882 110.8884 14.89421739309254
CORVUS BC3              
1 43118U 18004H   23220.98610228  .00027807  00000+0  67848-3 0  9994
2 43118  97.3219 295.3368 0005302 317.7728  42.3110 15.40824441310166
CICERO 7                
1 43143U 18004AJ  23220.69191870  .00079761  00000+0  90953-3 0  9996
2 43143  97.3295 308.9343 0002660 276.2051  83.8904 15.61972651310930
GOMX-4B                 
1 43196U 18015E   23221.64978857  .00016257  00000+0  43269-3 0  9999
2 43196  97.5842  14.2129 0013798  19.4145 340.7622 15.38196224307163
GOMX-4A                 
1 43197U 18015F   23221.66533404  .00020502  00000+0  48413-3 0  9991
2 43197  97.5836  16.6120 0012853  13.2005 346.9576 15.41808944307330
AEROCUBE 12B            
1 43557U 18046D   23221.37494879  .01241856  99911-3  12360-2 0  9997
2 43557  51.6126 267.7091 0010236   8.7551 351.3640 16.10636661284155
CUBEBEL-1 (BSUSAT-1)    
1 43666U 18083E   23221.74979281  .00035819  00000+0  84514-3 0  9992
2 43666  97.3772 253.7889 0006088 281.8689  78.1875 15.41783645265449
CICERO 10               
1 43690U 18088A   23221.21412546  .00020886  00000+0  54738-3 0  9995
2 43690  85.0295  36.6302 0011261  43.2730 316.9404 15.38487914263629
PROXIMA I               
1 43694U 18088E   23220.74687171  .00030681  00000+0  72207-3 0  9999
2 43694  85.0230  32.3867 0011816   6.2195 353.9201 15.41741035263864
PROXIMA II              
1 43696U 18088G   23220.76544380  .00031085  00000+0  73524-3 0  9999
2 43696  85.0233  32.4320 0011928   6.1515 353.9881 15.41587931263860
SIRION PATHFINDER-2     
1 43759U 18099B   23221.12646932  .00004819  00000+0  40059-3 0  9990
2 43759  97.5711 281.3020 0010689 303.9062  56.1144 14.99134478255556
CORVUS BC4              
1 43767U 18099K   23221.10991804  .00004928  00000+0  41542-3 0  9997
2 43767  97.5630 279.1577 0008738 309.4778  50.5672 14.98591241255451
MOVE-II                 
1 43780U 18099Y   23221.45228034  .00010806  00000+0  76820-3 0  9997
2 43780  97.5683 284.3785 0007649 339.1988  20.8926 15.04827556255749
SPACEBEE-7              
1 43816U 18099BL  23221.14623610  .00008864  00000+0  65605-3 0  9992
2 43816  97.5922 284.9683 0010524 277.7699  82.2331 15.03346816255263
SPACEBEE-5              
1 43817U 18099BM  23221.18290658  .00039633  00000+0  17679-2 0  9994
2 43817  97.5880 293.5025 0003527 236.1839 123.9061 15.21275177255740
SPACEBEE-6              
1 43818U 18099BN  23221.43214925  .00012115  00000+0  80296-3 0  9998
2 43818  97.5862 287.5359 0009958 291.7710  68.2458 15.07394517255580
SHIELDS 1               
1 43850U 18104B   23221.03212190  .00010147  00000+0  35365-3 0  9999
2 43850  85.0277 134.1308 0014077 150.1244 210.0809 15.29399464258183
STF-1                   
1 43852U 18104D   23221.20093292  .00043473  00000+0  85839-3 0  9999
2 43852  85.0235 130.8875 0011860 137.5165 222.7010 15.46897964258584
ZACUBE-2                
1 43907U 18111AH  23221.74016165  .00029802  00000+0  66150-3 0  9996
2 43907  97.1298 100.1638 0014360  29.9291 330.2775 15.43557544257404
LUME 1                  
1 43908U 18111AJ  23221.39739270  .00042811  00000+0  74820-3 0  9995
2 43908  97.1303 103.9955 0011380  20.3799 339.7906 15.50469132257629
MOVE-IIB                
1 44398U 19038N   23221.71179006  .00066145  00000+0  13024-2 0  9993
2 44398  97.6611 207.3207 0016360 102.9538 257.3539 15.46866519226921
SONATE                  
1 44400U 19038Q   23221.68783863  .00011099  00000+0  48030-3 0  9999
2 44400  97.6873 200.4866 0022196 122.9670 237.3703 15.22387198226378
LUCKY-7                 
1 44406U 19038W   23220.68129962  .00016466  00000+0  64687-3 0  9997
2 44406  97.6836 200.9547 0020790 120.4280 239.9015 15.25573390226325
BEESAT 9                
1 44412U 19038AC  23220.94786518  .00031148  00000+0  98531-3 0  9998
2 44412  97.6763 203.4261 0017640 116.3935 243.9119 15.32570769226238
JAISAT-1                
1 44419U 19038F   23221.40971285  .00026584  00000+0  83407-3 0  9998
2 44419  97.6758 205.0094 0017016 111.9024 248.4028 15.32876585226681
DUCHIFAT-3              
1 44854U 19089C   23221.15746592  .00009502  00000+0  62407-3 0  9998
2 44854  36.9605 134.5066 0007534  16.3700 343.7286 15.07134721200823
EYESAT-NANO             
1 44877U 19092E   23221.16950021  .00069538  00000+0  12964-2 0  9999
2 44877  97.4567  53.0180 0006687 288.8309  71.2216 15.48554211202281
M2 PATHFINDER           
1 45727U 20037E   23221.43480383  .00003970  00000+0  37355-3 0  9994
2 45727  97.7611  35.5113 0013569  88.0402 272.2372 14.94376491169191
NETSAT-4                
1 46504U 20068U   23221.39663242  .00007742  00000+0  50250-3 0  9994
2 46504  97.7640 167.7416 0010639 359.5006   0.6209 15.08302398156922
NETSAT-3                
1 46505U 20068V   23221.37019431  .00006513  00000+0  42597-3 0  9998
2 46505  97.7620 167.5092 0010079  10.4531 349.6904 15.08089232156920
NETSAT-1                
1 46506U 20068W   23221.09342123  .00005805  00000+0  38430-3 0  9999
2 46506  97.7627 167.0884 0008902  21.6589 338.5013 15.07697876156871
NETSAT-2                
1 46507U 20068X   23221.39706438  .00007690  00000+0  50041-3 0  9992
2 46507  97.7625 167.4725 0008420  27.5239 332.6433 15.08226941156873
SAI-1 NANOCONNECT-2     
1 47701U 21015C   23221.20569708  .00071344  00000+0  10517-2 0  9999
2 47701  97.3800 305.9298 0004977  37.9337 322.2267 15.55147893136375
WILDTRACKCUBE-SIMBA     
1 47941U 21022K   23221.74800466  .00007217  00000+0  41009-3 0  9990
2 47941  97.4904 117.8479 0019870 146.6400 213.6088 15.13032230131107
BEESAT-6                
1 47957U 21022AB  23221.16675419  .00020868  00000+0  93168-3 0  9991
2 47957  97.4875 119.6680 0017609 139.7336 220.5207 15.21250249130980
SMOG-1                  
1 47964U 21022AJ  23221.30254732  .00021432  00000+0  90607-3 0  9999
2 47964  97.4915 122.0065 0016376 126.2147 234.0606 15.23121526130158
BCCSAT-1                
1 48041U 21022AK  23221.28406755  .00018602  00000+0  84813-3 0  9994
2 48041  97.4912 120.7138 0014101 126.6061 233.6474 15.20605610130045
